STARLINK-31319          
1 59457U 24068C   24298.55308093 -.00004925  00000+0 -11063-3 0  9993
2 59457  43.0016 357.3842 0001823 251.6116 108.4542 15.40716011 31738
STARLINK-31625          
1 59458U 24068D   24298.45017907  .00000415  00000+0  17208-4 0  9990
2 59458  43.0002 357.4599 0001211 208.9635 151.1155 15.40687520 31722
STARLINK-31631          
1 59459U 24068E   24298.56430037  .00000994  00000+0  31066-4 0  9996
2 59459  42.9999 357.4689 0000579 151.6655 208.4233 15.40674534 31733
STARLINK-31620          
1 59460U 24068F   24298.54634970  .00003212  00000+0  84095-4 0  9994
2 59460  43.0042 357.3299 0001928 280.0052  80.0587 15.40714612 31737
STARLINK-31511          
1 59462U 24068H   24298.53069030  .00002038  00000+0  56073-4 0  9994
2 59462  43.0038 357.2088 0001326 257.0805 102.9903 15.40682805 31735
STARLINK-31364          
1 59463U 24068J   24298.55757781 -.00000226  00000+0  18416-5 0  9992
2 59463  43.0022 357.4169 0001207  22.8181 337.2729 15.40691584 31737
STARLINK-31597          
1 59464U 24068K   24298.44570148  .00000741  00000+0  25017-4 0  9996
2 59464  43.0016 357.4276 0001393 315.1792  44.8952 15.40669280 31672
STARLINK-31621          
1 59465U 24068L   24298.45241776  .00001590  00000+0  45317-4 0  9998
2 59465  42.9980 357.4909 0000602 193.5801 166.5040 15.40684928 31727
STARLINK-31462          
1 59466U 24068M   24298.57088386  .00004395  00000+0  11257-3 0  9999
2 59466  43.0009 356.6324 0000387 169.7550 190.3315 15.40652017 31746
STARLINK-31592          
1 59467U 24068N   24298.52844261 -.00000512  00000+0 -49941-5 0  9999
2 59467  43.0019 357.1910 0001274 251.6879 108.3839 15.40697588 31737
STARLINK-31267          
1 59468U 24068P   24298.47930884 -.00004180  00000+0 -92905-4 0  9993
2 59468  43.0045 357.6870 0001853 242.9355 117.1312 15.40684444 31722
STARLINK-31381          
1 59469U 24068Q   24298.47706544 -.00007915  00000+0 -18231-3 0  9996
2 59469  43.0049 357.6696 0001188 274.6777  85.3944 15.40718299 31727
STARLINK-31546          
1 59470U 24068R   24298.55531842  .00001223  00000+0  36534-4 0  9995
2 59470  43.0004 357.3974 0001651 243.2449 116.8238 15.40699251 31732
STARLINK-31575          
1 59471U 24068S   24298.54859189  .00013635  00000+0  33282-3 0  9998
2 59471  43.0010 357.3466 0001165 248.1401 111.9332 15.40723778 31731
STARLINK-31375          
1 59472U 24068T   24298.58334491  .00679598  19200-3  19690-2 0  9995
2 59472  42.9912 345.2918 0020835  65.2456 277.2314 15.91753059  5853
STARLINK-31610          
1 59473U 24068U   24298.44793221  .00002742  00000+0  72926-4 0  9999
2 59473  43.0038 357.4427 0001922 267.8619  92.2017 15.40679745 31725
STARLINK-31581          
1 59474U 24068V   24298.53964119  .00000869  00000+0  28085-4 0  9991
2 59474  43.0015 357.2795 0001037 238.0102 122.0654 15.40682365 31733
STARLINK-31566          
1 59475U 24068W   24298.37194029 -.00002528  00000+0 -53386-4 0  9997
2 59475  43.0024 357.7291 0000896 258.7178 101.3578 15.40641895 31710
STARLINK-31515          
1 59476U 24068X   24298.57311700  .00001959  00000+0  54202-4 0  9990
2 59476  43.0034 356.6595 0001177 221.2993 138.7775 15.40668658 31742
STARLINK-31531          
1 59477U 24068Y   24298.58334491  .00230315  00000+0  45253-2 0  9998
2 59477  43.0038 355.9250 0003688  68.2856 269.1182 15.45700280  5759
STARLINK-31753          
1 59484U 24071A   24298.49269110 -.00002570  00000+0 -54377-4 0  9996
2 59484  42.9980 316.2464 0000681 145.2749 214.8152 15.40659238 31210
STARLINK-31653          
1 59485U 24071B   24298.53910030  .00114494  00000+0  17236-2 0  9994
2 59485  43.0005 313.1132 0010258 108.0736 252.1244 15.53657359 31294
STARLINK-31733          
1 59486U 24071C   24298.54178754  .00014040  00000+0  34237-3 0  9992
2 59486  43.0007 315.7523 0001368 239.7634 120.3087 15.40732963 31269
STARLINK-31657          
1 59487U 24071D   24298.42110099 -.00001618  00000+0 -31490-4 0  9996
2 59487  43.0006 316.5668 0000746 238.3910 121.6874 15.40698041 31243
STARLINK-31754          
1 59488U 24071E   24298.24887550  .00002587  00000+0  69158-4 0  9996
2 59488  43.0026 316.9867 0001247 250.6969 109.3753 15.40705412 31227
STARLINK-31638          
1 59489U 24071F   24298.51715054  .00000682  00000+0  23580-4 0  9999
2 59489  43.0018 315.5589 0000659 222.9436 137.1369 15.40702982 31267
STARLINK-31670          
1 59490U 24071G   24298.44127336  .00000021  00000+0  77610-5 0  9994
2 59490  42.9984 316.7321 0001152 266.0450  94.0275 15.40686722 31248
STARLINK-31712          
1 59491U 24071H   24298.53505492  .00005566  00000+0  14034-3 0  9996
2 59491  43.0025 315.6996 0000885 264.1616  95.9139 15.40712960 31263
STARLINK-31684          
1 59492U 24071J   24298.24216488  .00001625  00000+0  46166-4 0  9993
2 59492  42.9985 316.9313 0000900 232.8012 127.2762 15.40684773 31221
STARLINK-31678          
1 59493U 24071K   24298.49473100  .00003265  00000+0  85346-4 0  9992
2 59493  43.0011 315.3892 0002018 246.3337 113.7308 15.40720099 30082
STARLINK-31744          
1 59494U 24071L   24298.49699093  .00000558  00000+0  20616-4 0  9995
2 59494  42.9993 315.4064 0000446 310.8164  49.2654 15.40700978 31262
STARLINK-31719          
1 59495U 24071M   24298.48144727  .00004242  00000+0  10876-3 0  9994
2 59495  42.9982 316.1551 0001087 267.3010  92.7722 15.40696035 31254
STARLINK-31728          
1 59496U 24071N   24298.54849877  .00004699  00000+0  11961-3 0  9992
2 59496  43.0013 315.8017 0001269 250.0811 109.9909 15.40721279 31263
STARLINK-31720          
1 59497U 24071P   24298.53057585  .00014532  00000+0  35410-3 0  9991
2 59497  43.0020 315.6634 0001161 265.5022  94.5702 15.40732503 31263
STARLINK-31731          
1 59498U 24071Q   24298.53953691  .00009609  00000+0  23671-3 0  9990
2 59498  43.0037 315.7299 0001451 246.8220 113.2484 15.40738979 31263
STARLINK-31742          
1 59499U 24071R   24298.53282165  .00010681  00000+0  26234-3 0  9992
2 59499  43.0014 315.6799 0000971 235.9133 124.1632 15.40729305 31260
STARLINK-31512          
1 59500U 24071S   24298.51521014  .00033434  00000+0  75684-3 0  9996
2 59500  43.0033 315.5464 0001883 204.3955 155.6813 15.42520280 31260
STARLINK-31458          
1 59501U 24071T   24298.53731197  .00003881  00000+0  10012-3 0  9991
2 59501  43.0004 315.7155 0000445 249.9311 110.1497 15.40700744 31269
STARLINK-31357          
1 59502U 24071U   24298.52387485  .00003735  00000+0  96614-4 0  9999
2 59502  42.9984 315.6104 0000907 152.9040 207.1864 15.40702178 31261
STARLINK-31508          
1 59503U 24071V   24298.32490534 -.00001130  00000+0 -19802-4 0  9991
2 59503  42.9986 316.6948 0001125 210.3364 149.7427 15.40700899 31233
STARLINK-31535          
1 59504U 24071W   24298.36025056 -.00002772  00000+0 -59080-4 0  9994
2 59504  43.0012 316.0946 0001372 261.1264  98.9437 15.40718137 31246
STARLINK-31533          
1 59505U 24071X   24298.51489642  .00004200  00000+0  10772-3 0  9997
2 59505  43.0009 315.5386 0001009 201.2770 158.8044 15.40710592 31268
STARLINK-31524          
1 59506U 24071Y   24298.33370022  .00049782  00000+0  11278-2 0  9994
2 59506  43.0008 315.8980 0000096 207.6400 152.4452 15.42342901 31244
STARLINK-31635          
1 59511U 24073A   24298.46329976  .00020352  00000+0  49244-3 0  9995
2 59511  43.0025 285.6456 0001493 269.6373  90.4312 15.40745049 29320
STARLINK-31650          
1 59512U 24073B   24298.42969741  .00004085  00000+0  10499-3 0  9997
2 59512  43.0046 285.3885 0001909 303.9293  56.1382 15.40706731 29323
STARLINK-31658          
1 59513U 24073C   24298.29123562 -.00283712  00000+0 -44358-2 0  9994
2 59513  43.0004 252.2547 0000573 236.2160 123.8646 15.53932498 29682
STARLINK-31664          
1 59514U 24073D   24298.42299137 -.00000079  00000+0  53714-5 0  9993
2 59514  43.0038 285.3346 0001334 241.4370 118.6352 15.40695505 29329
STARLINK-31669          
1 59515U 24073E   24298.45657692  .00006114  00000+0  15342-3 0  9999
2 59515  43.0037 285.5942 0001418 216.5266 143.5494 15.40718874 29322
STARLINK-31671          
1 59516U 24073F   24298.41176693  .00003248  00000+0  84900-4 0  9995
2 59516  43.0033 285.2444 0000903 275.7985  84.2769 15.40726099 29320
STARLINK-31674          
1 59517U 24073G   24298.44987294  .00001448  00000+0  41890-4 0  9997
2 59517  42.9996 285.5420 0000328 143.9815 216.1064 15.40708501 29325
STARLINK-31679          
1 59519U 24073J   24298.43418249  .00001474  00000+0  42535-4 0  9993
2 59519  43.0041 285.4210 0002016 243.6270 116.4380 15.40706862 29326
STARLINK-31370          
1 59520U 24073K   24298.34919832  .00000805  00000+0  26532-4 0  9995
2 59520  43.0024 285.6364 0001638 238.5029 121.5668 15.40705286 29319
STARLINK-31404          
1 59521U 24073L   24298.40730183  .00002449  00000+0  65836-4 0  9999
2 59521  43.0044 285.2091 0001279 255.3027 104.7688 15.40715709 29328
STARLINK-31453          
1 59522U 24073M   24298.02934298  .00040767  00000+0  89518-3 0  9998
2 59522  43.0041 286.6800 0001640 217.3564 142.7180 15.43347776 29276
STARLINK-31476          
1 59523U 24073N   24298.42522200  .00002024  00000+0  55691-4 0  9999
2 59523  43.0043 285.3464 0001244 227.1442 132.9310 15.40709088 29322
STARLINK-31376          
1 59524U 24073P   24298.46105982  .00005408  00000+0  13654-3 0  9999
2 59524  43.0026 285.6276 0001125 250.8341 109.2394 15.40718214 29327
STARLINK-31538          
1 59525U 24073Q   24298.38953616  .00001717  00000+0  48382-4 0  9992
2 59525  43.0005 285.9444 0000580 207.1873 152.8953 15.40681774 29318
STARLINK-31564          
1 59526U 24073R   24298.32920466  .00001163  00000+0  35114-4 0  9998
2 59526  43.0007 286.3537 0001049 245.7357 114.3390 15.40676785 29308
STARLINK-31452          
1 59527U 24073S   24298.40953402 -.00001040  00000+0 -17619-4 0  9990
2 59527  43.0015 285.2297 0000461 257.2628 102.8177 15.40730335 29324
